[{"OBJECT_NAME":"STARLINK-5433","OBJECT_ID":"2022-175AM","EPOCH":"2026-03-09T05:58:48.387360","MEAN_MOTION":15.08825022,"ECCENTRICITY":9.32e-5,"INCLINATION":53.2191,"RA_OF_ASC_NODE":21.1085,"ARG_OF_PERICENTER":87.8844,"MEAN_ANOMALY":272.2255,"EPHEMERIS_TYPE":0,"CLASSIFICATION_TYPE":"U","NORAD_CAT_ID":54793,"ELEMENT_SET_NO":999,"REV_AT_EPOCH":18020,"BSTAR":-0.00011011945,"MEAN_MOTION_DOT":-2.039e-5,"MEAN_MOTION_DDOT":0},{"OBJECT_NAME":"DELTA 1 DEB","OBJECT_ID":"1975-004G","EPOCH":"2026-03-09T15:36:08.786016","MEAN_MOTION":14.94952077,"ECCENTRICITY":0.0108933,"INCLINATION":98.7496,"RA_OF_ASC_NODE":312.2418,"ARG_OF_PERICENTER":37.6041,"MEAN_ANOMALY":323.2729,"EPHEMERIS_TYPE":0,"CLASSIFICATION_TYPE":"U","NORAD_CAT_ID":8679,"ELEMENT_SET_NO":999,"REV_AT_EPOCH":62753,"BSTAR":0.0013803,"MEAN_MOTION_DOT":0.00016927,"MEAN_MOTION_DDOT":0}]
